METEOR-M2 2             
1 44387U 19038A   24136.19397261  .00000218  00000+0  11502-3 0  9993
2 44387  98.8248 105.2926 0002356  71.2493 288.8941 14.23883474252692
GPS BIII-2              
1 44506U 19056A   24135.06421810 -.00000108  00000+0  00000+0 0  9995
2 44506  55.8403   1.4333 0040947 188.3832 343.2934  2.00571596 34748
BEIDOU-3 M23            
1 44542U 19061A   24134.61914002 -.00000017  00000+0  00000+0 0  9990
2 44542  54.4455 208.5273 0007266 349.1397  10.9079  1.86231255 31555
BEIDOU-3 M24            
1 44543U 19061B   24135.33157778 -.00000020  00000+0  00000+0 0  9994
2 44543  54.4440 208.4720 0004612 329.0911  60.8330  1.86231729 31579
BEIDOU-3 M21            
1 44793U 19078A   24135.53881943 -.00000082  00000+0  00000+0 0  9997
2 44793  54.5877 326.5301 0006774  30.9400 329.1085  1.86232280 30424
BEIDOU-3 M22            
1 44794U 19078B   24135.13174492 -.00000083  00000+0  00000+0 0  9999
2 44794  54.5617 326.5210 0004603  29.1041 330.9294  1.86232753 30423
ELEKTRO-L 3             
1 44903U 19095A   24135.90535420 -.00000099  00000+0  00000+0 0  9994
2 44903   0.0693  65.7325 0001037 346.1220 223.2331  1.00272637 16042
GPS BIII-3              
1 45854U 20041A   24131.69851275 -.00000070  00000+0  00000+0 0  9993
2 45854  56.0938  58.8992 0041566 193.3536   4.9579  2.00559134 28645
COSMOS 2547             
1 46805U 20075A   24134.98760689 -.00000016  00000+0  00000+0 0  9990
2 46805  64.5998 218.0212 0007851 239.1483 120.8255  2.13103162 27622
GPS BIII-4              
1 46826U 20078A   24135.52477064 -.00000041  00000+0  00000+0 0  9997
2 46826  54.1943 241.7756 0044960 195.7562 223.3112  2.00560425 26190
GSAT0223 (GALILEO 27)   
1 49809U 21116A   24133.21414153 -.00000105  00000+0  00000+0 0  9990
2 49809  57.2959   2.3338 0001069 125.1600  60.2188  1.70475605 15117
GSAT0224 (GALILEO 28)   
1 49810U 21116B   24134.19398410 -.00000104  00000+0  00000+0 0  9996
2 49810  57.2967   2.3058 0000986  77.7752 101.4607  1.70475800 15160
GOES 18                 
1 51850U 22021A   24136.03868743  .00000095  00000+0  00000+0 0  9993
2 51850   0.0359  95.8796 0000556 266.0962 108.2015  1.00271596  8151
CRE (WAAS/PRN 138)      
1 28868U 05036A   24136.22037134 -.00000074  00000+0  00000+0 0  9994
2 28868   2.3486  86.0015 0003449 340.2929 139.1932  1.00272381 68507
IOR-W (EGNOS/PRN 126)   
1 28899U 05044A   24135.68764747 -.00000262  00000+0  00000+0 0  9992
2 28899   4.1557  42.2935 0002077  19.7250 201.9370  1.00271764 67862
GSAT-8 (GAGAN/PRN 127)  
1 37605U 11022A   24136.01855128  .00000083  00000+0  00000+0 0  9992
2 37605   0.1537  91.8378 0004089 211.2179 351.9618  1.00272813 47580
LUCH 5A (SDCM/PRN 140)  
1 37951U 11074B   24135.58858590 -.00000048  00000+0  00000+0 0  9992
2 37951   6.8006  85.4966 0003764 341.8051 184.4147  1.00269042 45537
SES-5 (EGNOS/PRN 136)   
1 38652U 12036A   24136.19432441  .00000033  00000+0  00000+0 0  9994
2 38652   0.0322 322.3642 0001986  89.8471 256.1348  1.00272594 43417
GSAT-10 (GAGAN/PRN 128) 
1 38779U 12051B   24136.03174277 -.00000166  00000+0  00000+0 0  9992
2 38779   0.0221  69.1261 0001221 249.5382   9.0121  1.00269956 42642
LUCH 5B (SDCM/PRN 125)  
1 38977U 12061A   24136.05344517 -.00000136  00000+0  00000+0 0  9998
2 38977   8.8186  56.9925 0002427  73.7604 105.4194  1.00272121 42528
ASTRA 5B (EGNOS/PRN 123)
1 39617U 14011B   24135.89424545  .00000135  00000+0  00000+0 0  9996
2 39617   0.0541 317.8838 0002422  67.1419 193.5050  1.00271596 37019
LUCH 5V (SDCM/PRN 141)  
1 39727U 14023A   24135.30882867 -.00000270  00000+0  00000+0 0  9993
2 39727   3.2159  76.2379 0001763   2.7993 359.4213  1.00269260 36700
GSAT-15 (GAGAN/PRN 139) 
1 41028U 15065A   24135.76021832 -.00000260  00000+0  00000+0 0  9993
2 41028   0.0095 285.6246 0003712 127.8102 186.7196  1.00271995 31150
E 117 W B (WAAS/PRN 131)
1 41589U 16038B   24135.45605021 -.00000014  00000+0  00000+0 0  9997
2 41589   0.0081 132.3609 0000442 345.7503 161.7515  1.00269845 29001
SES-15 (WAAS/PRN 133)   
1 42709U 17026A   24135.55257466  .00000058  00000+0  00000+0 0  9994
2 42709   0.0401  58.0486 0000237 320.0275 284.4821  1.00269239 26482
QZS-2 (QZSS/PRN 194)    
1 42738U 17028A   24121.22834111 -.00000192  00000+0  00000+0 0  9995
2 42738  40.6536 254.4424 0739983 270.7348 273.4801  1.00248741 25330
QZS-3 (QZSS/PRN 199)    
1 42917U 17048A   24136.11577009 -.00000349  00000+0  00000+0 0  9994
2 42917   0.0889 125.7778 0002655 290.8407 345.3960  1.00268555 24711
QZS-4 (QZSS/PRN 195)    
1 42965U 17062A   24135.47206307 -.00000353  00000+0  00000+0 0  9996
2 42965  40.5280 353.2134 0747412 270.9927 276.9716  1.00263153 24149
BEIDOU-3 G1 (PRN 130)   
1 43683U 18085A   24135.73938436 -.00000278  00000+0  00000+0 0  9990
2 43683   2.1106 110.8551 0003720 343.3326 184.9667  1.00274707 20408
BEIDOU-3 G2 (PRN 144)   
1 45344U 20017A   24135.91507538 -.00000143  00000+0  00000+0 0  9990
2 45344   2.2777  28.3336 0000540  23.4196 230.8371  1.00272348 15610
BEIDOU-3 G3 (PRN 143)   
1 45807U 20040A   24135.77549440 -.00000356  00000+0  00000+0 0  9998
2 45807   0.7256  37.8192 0005389 291.1035 293.7888  1.00275622 14412
GALAXY 30 (WAAS/PRN 135)
1 46114U 20056C   24135.55257466  .00000035  00000+0  00000+0 0  9990
2 46114   0.0091 323.1171 0002020  85.3053 258.2789  1.00270934 13634
QZS-1R (QZSS/PRN 196)   
1 49336U 21096A   24135.20188132 -.00000243  00000+0  00000+0 0  9991
2 49336  35.8777  91.0405 0754022 270.8835  78.3699  1.00271284  9349
HST                     
1 20580U 90037B   24135.90876623  .00010197  00000+0  48831-3 0  9994
2 20580  28.4674 208.0227 0002647  44.9204 315.1603 15.17286694672239
POLAR                   
1 23802U 96013A   24135.78068380  .00000155  00000+0  00000+0 0  9998
2 23802  79.1018 234.9701 5860447 234.9029  55.5003  1.29847101134922
SWAS                    
1 25560U 98071A   24135.95053566  .00007500  00000+0  60876-3 0  9998
2 25560  69.9001  22.9095 0007677 319.6127  40.4461 14.99995105382406
CXO                     
1 25867U 99040B   24138.77365644  .00000644  00000+0  00000+0 0  9992
2 25867  40.5075 156.6402 8922033 294.4302 359.8066  0.37814091 25609
XMM-NEWTON              
1 25989U 99066A   24134.42282267 -.00000054  00000+0  00000+0 0  9998
2 25989  67.9216 293.3692 5179403  77.7385 340.5029  0.50136301 19187
TERRA                   
1 25994U 99068A   24136.18673424  .00001620  00000+0  34897-3 0  9994
2 25994  98.0495 200.6419 0003394 102.7166 316.7651 14.59743731298350
CLUSTER II-FM7 (SAMBA)  
1 26410U 00041A   24137.68082544  .00000463  00000+0  00000+0 0  9993
2 26410 138.9382 357.7032 7409192 212.6253   0.4896  0.44201763 16909
CLUSTER II-FM6 (SALSA)  
1 26411U 00041B   24133.09729905  .00001840  00000+0  00000+0 0  9994
2 26411 147.8147  22.0176 8945878 237.0491   0.6753  0.44251078 16943
CLUSTER II-FM5 (RUMBA)  
1 26463U 00045A   24137.66699612  .00001281  00000+0  00000+0 0  9992
2 26463 149.9061  17.3540 8480766 232.7275   0.3355  0.44219752 16838
CLUSTER II-FM8 (TANGO)  
1 26464U 00045B   24137.68088096  .00000464  00000+0  00000+0 0  9995
2 26464 138.9675 357.7290 7405511 212.6522   0.4967  0.44222876 16917
ODIN                    
1 26702U 01007A   24136.00671078  .00016243  00000+0  72269-3 0  9994
2 26702  97.4843 151.3460 0008930  52.3121 307.8923 15.21526987272467
TIMED                   
1 26998U 01055B   24135.90856782  .00002856  00000+0  29063-3 0  9998
2 26998  74.0717 327.7854 0000800 319.6171  40.4952 14.91258758216861
INTEGRAL                
1 27540U 02048A   24136.22197076  .00000202  00000+0  00000+0 0  9994
2 27540  88.8852  22.3438 8654625 282.9260 254.2195  0.37582045 23766
CORIOLIS                
1 27640U 03001A   24135.95643353  .00000451  00000+0  23467-3 0  9990
2 27640  98.7137 143.7082 0013016 248.9551 111.0233 14.19460835105925
SORCE                   
1 27651U 03004A   24135.76149804  .00006609  00000+0  60601-3 0  9998
2 27651  39.9928 271.4981 0020896 357.5105   2.5579 14.94877319157246
MOST                    
1 27843U 03031D   24135.96137417  .00000368  00000+0  19022-3 0  9997
2 27843  98.7066 143.4139 0008896 299.1768  60.8518 14.20950946 82301
SCISAT 1                
1 27858U 03036A   24135.59069799  .00002231  00000+0  30570-3 0  9996
2 27858  73.9338 246.2382 0006540 128.3055 231.8709 14.79122364118448
SWIFT                   
1 28485U 04047A   24135.93586933  .00017705  00000+0  81327-3 0  9996
2 28485  20.5573  59.1309 0008141 210.0787 149.9182 15.18216052 69119
CALIPSO                 
1 29108U 06016B   24136.24908265  .00003327  00000+0  62120-3 0  9993
2 29108  98.4171 117.3061 0001646  96.9046 263.2344 14.65642766961144
HINODE (SOLAR-B)        
1 29479U 06041A   24135.91063857  .00002059  00000+0  38075-3 0  9997
2 29479  98.0905 151.7079 0018043 181.2251 178.8912 14.66343077942901
SHIJIAN-6 02A (SJ-6 02A)
1 29505U 06046A   24136.12990088  .00009234  00000+0  69158-3 0  9999
2 29505  97.7253 163.3133 0002927 188.3387 171.7790 15.02932657957197
SHIJIAN-6 02B (SJ-6 02B)
1 29506U 06046B   24136.16704576  .00003431  00000+0  30185-3 0  9990
2 29506  97.7421 161.3860 0003706  71.8752 288.2873 14.97169019956392
FGRST (GLAST)           
1 33053U 08029A   24135.94626730  .00005515  00000+0  25927-3 0  9998
2 33053  25.5829  77.5627 0010413   6.8221 353.2456 15.16529103879521
WISE                    
1 36119U 09071A   24136.09096180  .00078105  00000+0  92540-3 0  9999
2 36119  97.1492 172.3126 0001821 157.2141 202.9198 15.60982970803097
SDO                     
1 36395U 10005A   24134.42957102 -.00000063  00000+0  00000+0 0  9994
2 36395  33.0563  98.1267 0000998 229.6433 316.8789  1.00272884 52399
CRYOSAT 2               
1 36508U 10013A   24136.20599446  .00000751  00000+0  18578-3 0  9996
2 36508  92.0322  93.0133 0004824  60.5413 299.6275 14.51902712747413
